H1 CPF  1  MCC 2022  9 16 15  7591 larets
H2  0304206 5557    27944 2022 09 15 23 45 00 2022 09 20 23 57 00   180 1 1  0 0 0
H9
10 0 59839 73980.000000 0      -544803.769     -6990070.849       920549.523
10 0 59839 74160.000000 0      -833519.930     -7011467.679      -413438.377
10 0 59839 74340.000000 0     -1089137.845     -6771444.024     -1732328.737
10 0 59839 74520.000000 0     -1295686.104     -6279969.892     -2987991.496
10 0 59839 74700.000000 0     -1439377.863     -5556535.301     -4134692.350
10 0 59839 74880.000000 0     -1509342.853     -4629324.712     -5130761.593
10 0 59839 75060.000000 0     -1498220.597     -3534061.959     -5940082.131
10 0 59839 75240.000000 0     -1402590.178     -2312592.965     -6533351.899
10 0 59839 75420.000000 0     -1223219.945     -1011267.667     -6889089.004
10 0 59839 75600.000000 0      -965130.597       320811.517     -6994356.639
10 0 59839 75780.000000 0      -637469.160      1633612.244     -6845202.225
10 0 59839 75960.000000 0      -253196.089      2878011.875     -6446808.546
10 0 59839 76140.000000 0       171405.155      4007608.438     -5813355.433
10 0 59839 76320.000000 0       617388.710      4980453.759     -4967581.661
10 0 59839 76500.000000 0      1063954.460      5760646.792     -3940044.064
10 0 59839 76680.000000 0      1489376.858      6319728.496     -2768078.563
10 0 59839 76860.000000 0      1872016.797      6637808.795     -1494481.386
10 0 59839 77040.000000 0      2191369.887      6704365.163      -165945.889
10 0 59839 77220.000000 0      2429095.949      6518655.268      1168689.057
10 0 59839 77400.000000 0      2569971.103      6089712.821      2460296.353
10 0 59839 77580.000000 0      2602711.149      5435926.665      3661337.028
10 0 59839 77760.000000 0      2520622.368      4584224.997      4727671.282
10 0 59839 77940.000000 0      2322040.799      3568904.194      5620222.416
10 0 59839 78120.000000 0      2010537.919      2430169.589      6306407.416
10 0 59839 78300.000000 0      1594896.909      1212483.433      6761295.237
10 0 59839 78480.000000 0      1088857.801       -37215.149      6968466.771
10 0 59839 78660.000000 0       510646.731     -1271335.994      6920556.685
10 0 59839 78840.000000 0      -117692.544     -2443451.278      6619484.148
10 0 59839 79020.000000 0      -771145.208     -3510040.026      6076360.885
10 0 59839 79200.000000 0     -1422714.573     -4432099.742      5311081.035
10 0 59839 79380.000000 0     -2044521.795     -5176576.244      4351619.900
10 0 59839 79560.000000 0     -2608988.764     -5717578.169      3233047.001
10 0 59839 79740.000000 0     -3090049.283     -6037314.066      1996259.600
10 0 59839 79920.000000 0     -3464328.562     -6126702.675       686486.588
10 0 59839 80100.000000 0     -3712236.457     -5985633.278      -648381.599
10 0 59839 80280.000000 0     -3818919.829     -5622859.668     -1959573.559
10 0 59839 80460.000000 0     -3775024.068     -5055528.345     -3199252.500
10 0 59839 80640.000000 0     -3577223.347     -4308365.320     -4322283.212
10 0 59839 80820.000000 0     -3228494.406     -3412572.277     -5287871.497
10 0 59839 81000.000000 0     -2738128.951     -2404496.108     -6061015.725
10 0 59839 81180.000000 0     -2121489.845     -1324136.822     -6613726.650
10 0 59839 81360.000000 0     -1399522.152      -213559.277     -6925984.931
10 0 59839 81540.000000 0      -598042.481       884726.975     -6986413.180
10 0 59839 81720.000000 0       253166.226      1929362.002     -6792664.371
10 0 59839 81900.000000 0      1121432.214      2881663.141     -6351525.279
10 0 59839 82080.000000 0      1972422.308      3707047.445     -5678727.587
10 0 59839 82260.000000 0      2771481.316      4376301.697     -4798453.078
10 0 59839 82440.000000 0      3485038.800      4866656.182     -3742539.752
10 0 59839 82620.000000 0      4082032.092      5162620.782     -2549391.990
10 0 59839 82800.000000 0      4535283.653      5256534.894     -1262614.376
10 0 59839 82980.000000 0      4822759.548      5148796.303        70588.886
10 0 59839 83160.000000 0      4928639.110      4847746.471      1401189.412
10 0 59839 83340.000000 0      4844130.102      4369212.306      2680200.010
10 0 59839 83520.000000 0      4567990.572      3735729.228      3860549.649
10 0 59839 83700.000000 0      4106716.823      2975477.906      4898876.622
10 0 59839 83880.000000 0      3474396.617      2121002.409      5757150.621
10 0 59839 84060.000000 0      2692236.516      1207780.237      6404063.395
10 0 59839 84240.000000 0      1787798.677       272718.199      6816133.786
10 0 59839 84420.000000 0       793988.930      -647352.267      6978509.647
10 0 59839 84600.000000 0      -252166.817     -1517126.327      6885460.629
10 0 59839 84780.000000 0     -1310914.846     -2304177.660      6540547.036
10 0 59839 84960.000000 0     -2341282.578     -2980160.311      5956467.236
10 0 59839 85140.000000 0     -3302653.535     -3521824.944      5154604.013
10 0 59839 85320.000000 0     -4156374.687     -3911827.182      4164273.355
10 0 59839 85500.000000 0     -4867325.509     -4139289.949      3021674.902
10 0 59839 85680.000000 0     -5405378.340     -4200099.576      1768585.873
10 0 59839 85860.000000 0     -5746692.540     -4096924.221       450833.835
10 0 59839 86040.000000 0     -5874773.658     -3838945.794      -883399.690
10 0 59839 86220.000000 0     -5781241.962     -3441318.637     -2185374.057
10 0 59840     0.000000 0     -5466264.435     -2924379.646     -3407604.502
10 0 59840   180.000000 0     -4938632.717     -2312656.593     -4505608.814
10 0 59840   360.000000 0     -4215493.692     -1633730.288     -5439517.236
10 0 59840   540.000000 0     -3321750.841      -917008.223     -6175488.156
10 0 59840   720.000000 0     -2289169.648      -192466.445     -6686882.674
10 0 59840   900.000000 0     -1155230.341       510582.934     -6955169.880
10 0 59840  1080.000000 0        38224.706      1164650.263     -6970548.909
10 0 59840  1260.000000 0      1246502.073      1745119.671     -6732287.912
10 0 59840  1440.000000 0      2423693.868      2231163.090     -6248779.614
10 0 59840  1620.000000 0      3524398.965      2606492.150     -5537295.725
10 0 59840  1800.000000 0      4505468.424      2859918.840     -4623438.135
10 0 59840  1980.000000 0      5327722.393      2985707.471     -3540293.241
10 0 59840  2160.000000 0      5957568.450      2983698.402     -2327289.977
10 0 59840  2340.000000 0      6368444.762      2859193.862     -1028791.501
10 0 59840  2520.000000 0      6542010.489      2622600.839       307541.933
10 0 59840  2700.000000 0      6469008.225      2288841.751      1632551.030
10 0 59840  2880.000000 0      6149746.376      1876563.758      2897451.053
10 0 59840  3060.000000 0      5594174.306      1407189.447      4055699.717
10 0 59840  3240.000000 0      4821537.905       903857.149      5064765.568
10 0 59840  3420.000000 0      3859644.681       390313.356      5887711.930
10 0 59840  3600.000000 0      2743783.948      -110185.835      6494540.785
10 0 59840  3780.000000 0      1515360.920      -575907.285      6863246.151
10 0 59840  3960.000000 0       220315.073      -987565.727      6980564.957
10 0 59840  4140.000000 0     -1092624.664     -1329109.627      6842409.370
10 0 59840  4320.000000 0     -2373778.038     -1588338.499      6453974.901
10 0 59840  4500.000000 0     -3574383.010     -1757330.663      5829536.454
10 0 59840  4680.000000 0     -4648449.819     -1832674.074      4991946.372
10 0 59840  4860.000000 0     -5554541.157     -1815497.382      3971825.229
10 0 59840  5040.000000 0     -6257398.817     -1711293.635      2806463.827
10 0 59840  5220.000000 0     -6729351.649     -1529545.628      1538476.327
10 0 59840  5400.000000 0     -6951448.555     -1283172.574       214238.875
10 0 59840  5580.000000 0     -6914244.923      -987819.097     -1117833.231
10 0 59840  5760.000000 0     -6618200.400      -661023.665     -2409089.441
10 0 59840  5940.000000 0     -6073671.376      -321312.653     -3612448.261
10 0 59840  6120.000000 0     -5300504.287        12733.262     -4684128.439
10 0 59840  6300.000000 0     -4327250.796       323397.047     -5585231.404
10 0 59840  6480.000000 0     -3190055.705       594678.714     -6283115.981
10 0 59840  6660.000000 0     -1931274.844       813044.057     -6752523.607
10 0 59840  6840.000000 0      -597889.411       968040.684     -6976433.574
10 0 59840  7020.000000 0       760227.494      1052761.204     -6946635.872
10 0 59840  7200.000000 0      2092135.010      1064137.538     -6664022.316
10 0 59840  7380.000000 0      3347702.603      1003058.269     -6138589.643
10 0 59840  7560.000000 0      4479481.252       874303.085     -5389136.534
10 0 59840  7740.000000 0      5444506.839       686293.455     -4442662.706
10 0 59840  7920.000000 0      6205980.348       450667.423     -3333469.126
10 0 59840  8100.000000 0      6734748.832       181690.509     -2101967.687
10 0 59840  8280.000000 0      7010517.042      -104473.929      -793229.568
10 0 59840  8460.000000 0      7022714.152      -390601.666       544685.762
10 0 59840  8640.000000 0      6770960.052      -659309.054      1862546.521
10 0 59840  8820.000000 0      6265099.587      -893972.415      3111831.117
10 0 59840  9000.000000 0      5524792.641     -1079612.651      4246585.666
10 0 59840  9180.000000 0      4578689.742     -1203696.785      5225161.591
10 0 59840  9360.000000 0      3463243.366     -1256814.893      6011761.865
10 0 59840  9540.000000 0      2221222.859     -1233196.563      6577734.958
10 0 59840  9720.000000 0       900011.333     -1131050.606      6902579.008
10 0 59840  9900.000000 0      -450242.949      -952713.877      6974636.236
10 0 59840 10080.000000 0     -1778545.862      -704603.754      6791463.658
10 0 59840 10260.000000 0     -3034977.583      -396979.288      6359887.487
10 0 59840 10440.000000 0     -4172559.139       -43518.553      5695749.418
99
